OBJECT B                
1 51825U 22019B   24114.81676250  .00020703  00000+0  94909-3 0  9997
2 51825  97.4322 186.8725 0015983  73.7056 286.5936 15.20367115118966
